{
"type": "FeatureCollection",
"name": "obs",
"crs": { "type": "name", "properties": { "name": "urn:ogc:def:crs:EPSG::32610" } },
"features": [
{ "type": "Feature", "properties": { }, "geometry": { "type": "Point", "coordinates": [ 417145.603036932065152, 4941908.870304012671113 ] } },
{ "type": "Feature", "properties": { }, "geometry": { "type": "Point", "coordinates": [ 418223.793016103911214, 4939356.233698574826121 ] } },
{ "type": "Feature", "properties": { }, "geometry": { "type": "Point", "coordinates": [ 419770.183576869778335, 4940305.54151760507375 ] } },
{ "type": "Feature", "properties": { }, "geometry": { "type": "Point", "coordinates": [ 419792.175606063101441, 4939326.282457796856761 ] } },
{ "type": "Feature", "properties": { }, "geometry": { "type": "Point", "coordinates": [ 419938.327083110169042, 4935628.404663317836821 ] } },
{ "type": "Feature", "properties": { }, "geometry": { "type": "Point", "coordinates": [ 421079.463941574562341, 4936732.034179514274001 ] } },
{ "type": "Feature", "properties": { }, "geometry": { "type": "Point", "coordinates": [ 425224.394865439389832, 4937955.018130579963326 ] } },
{ "type": "Feature", "properties": { }, "geometry": { "type": "Point", "coordinates": [ 428379.644493662402965, 4939323.469869053922594 ] } }
]
}
