{
"type": "FeatureCollection",
"name": "region",
"crs": { "type": "name", "properties": { "name": "urn:ogc:def:crs:EPSG::32610" } },
"features": [
{ "type": "Feature", "properties": { "value": 1.0 }, "geometry": { "type": "Polygon", "coordinates": [ [ [ 423627.0, 4931920.0 ], [ 423627.0, 4931970.0 ], [ 423577.0, 4931970.0 ], [ 423577.0, 4932120.0 ], [ 423527.0, 4932120.0 ], [ 423527.0, 4932170.0 ], [ 423427.0, 4932170.0 ], [ 423427.0, 4932220.0 ], [ 423177.0, 4932220.0 ], [ 423177.0, 4932270.0 ], [ 423077.0, 4932270.0 ], [ 423077.0, 4932320.0 ], [ 423027.0, 4932320.0 ], [ 423027.0, 4932370.0 ], [ 422977.0, 4932370.0 ], [ 422977.0, 4932470.0 ], [ 422877.0, 4932470.0 ], [ 422877.0, 4932520.0 ], [ 422827.0, 4932520.0 ], [ 422827.0, 4932620.0 ], [ 422777.0, 4932620.0 ], [ 422777.0, 4932720.0 ], [ 422727.0, 4932720.0 ], [ 422727.0, 4932770.0 ], [ 422677.0, 4932770.0 ], [ 422677.0, 4932820.0 ], [ 422627.0, 4932820.0 ], [ 422627.0, 4932870.0 ], [ 422477.0, 4932870.0 ], [ 422477.0, 4932920.0 ], [ 422427.0, 4932920.0 ], [ 422427.0, 4932970.0 ], [ 422377.0, 4932970.0 ], [ 422377.0, 4933020.0 ], [ 422077.0, 4933020.0 ], [ 422077.0, 4932970.0 ], [ 421977.0, 4932970.0 ], [ 421977.0, 4932920.0 ], [ 421877.0, 4932920.0 ], [ 421877.0, 4932870.0 ], [ 421777.0, 4932870.0 ], [ 421777.0, 4932820.0 ], [ 421577.0, 4932820.0 ], [ 421577.0, 4932870.0 ], [ 421377.0, 4932870.0 ], [ 421377.0, 4932920.0 ], [ 421327.0, 4932920.0 ], [ 421327.0, 4932970.0 ], [ 421277.0, 4932970.0 ], [ 421277.0, 4933020.0 ], [ 420827.0, 4933020.0 ], [ 420827.0, 4932920.0 ], [ 420777.0, 4932920.0 ], [ 420777.0, 4932820.0 ], [ 420727.0, 4932820.0 ], [ 420727.0, 4932770.0 ], [ 420677.0, 4932770.0 ], [ 420677.0, 4932670.0 ], [ 420627.0, 4932670.0 ], [ 420627.0, 4932570.0 ], [ 420577.0, 4932570.0 ], [ 420577.0, 4932520.0 ], [ 420527.0, 4932520.0 ], [ 420527.0, 4932470.0 ], [ 420477.0, 4932470.0 ], [ 420477.0, 4932420.0 ], [ 420327.0, 4932420.0 ], [ 420327.0, 4932470.0 ], [ 420227.0, 4932470.0 ], [ 420227.0, 4932520.0 ], [ 420127.0, 4932520.0 ], [ 420127.0, 4932570.0 ], [ 420077.0, 4932570.0 ], [ 420077.0, 4932620.0 ], [ 419977.0, 4932620.0 ], [ 419977.0, 4932720.0 ], [ 419927.0, 4932720.0 ], [ 419927.0, 4932770.0 ], [ 419777.0, 4932770.0 ], [ 419777.0, 4932820.0 ], [ 419627.0, 4932820.0 ], [ 419627.0, 4932870.0 ], [ 419577.0, 4932870.0 ], [ 419577.0, 4932970.0 ], [ 419527.0, 4932970.0 ], [ 419527.0, 4933270.0 ], [ 419477.0, 4933270.0 ], [ 419477.0, 4933320.0 ], [ 419427.0, 4933320.0 ], [ 419427.0, 4933370.0 ], [ 419377.0, 4933370.0 ], [ 419377.0, 4933570.0 ], [ 419327.0, 4933570.0 ], [ 419327.0, 4933620.0 ], [ 419277.0, 4933620.0 ], [ 419277.0, 4933920.0 ], [ 419227.0, 4933920.0 ], [ 419227.0, 4933970.0 ], [ 419177.0, 4933970.0 ], [ 419177.0, 4934020.0 ], [ 419127.0, 4934020.0 ], [ 419127.0, 4934070.0 ], [ 419177.0, 4934070.0 ], [ 419177.0, 4934170.0 ], [ 419227.0, 4934170.0 ], [ 419227.0, 4934220.0 ], [ 419177.0, 4934220.0 ], [ 419177.0, 4934320.0 ], [ 419027.0, 4934320.0 ], [ 419027.0, 4934370.0 ], [ 418977.0, 4934370.0 ], [ 418977.0, 4934420.0 ], [ 418927.0, 4934420.0 ], [ 418927.0, 4934520.0 ], [ 418877.0, 4934520.0 ], [ 418877.0, 4934570.0 ], [ 418777.0, 4934570.0 ], [ 418777.0, 4934520.0 ], [ 418727.0, 4934520.0 ], [ 418727.0, 4934470.0 ], [ 418677.0, 4934470.0 ], [ 418677.0, 4934420.0 ], [ 418577.0, 4934420.0 ], [ 418577.0, 4934370.0 ], [ 418327.0, 4934370.0 ], [ 418327.0, 4934520.0 ], [ 418227.0, 4934520.0 ], [ 418227.0, 4934670.0 ], [ 418177.0, 4934670.0 ], [ 418177.0, 4934720.0 ], [ 418127.0, 4934720.0 ], [ 418127.0, 4934770.0 ], [ 418077.0, 4934770.0 ], [ 418077.0, 4934970.0 ], [ 418027.0, 4934970.0 ], [ 418027.0, 4935070.0 ], [ 417977.0, 4935070.0 ], [ 417977.0, 4935170.0 ], [ 417927.0, 4935170.0 ], [ 417927.0, 4935320.0 ], [ 417877.0, 4935320.0 ], [ 417877.0, 4935420.0 ], [ 417827.0, 4935420.0 ], [ 417827.0, 4935720.0 ], [ 417877.0, 4935720.0 ], [ 417877.0, 4936120.0 ], [ 417927.0, 4936120.0 ], [ 417927.0, 4936220.0 ], [ 417977.0, 4936220.0 ], [ 417977.0, 4936420.0 ], [ 418027.0, 4936420.0 ], [ 418027.0, 4936770.0 ], [ 417977.0, 4936770.0 ], [ 417977.0, 4936820.0 ], [ 417927.0, 4936820.0 ], [ 417927.0, 4936870.0 ], [ 417877.0, 4936870.0 ], [ 417877.0, 4936920.0 ], [ 417827.0, 4936920.0 ], [ 417827.0, 4936970.0 ], [ 417727.0, 4936970.0 ], [ 417727.0, 4937020.0 ], [ 417677.0, 4937020.0 ], [ 417677.0, 4937070.0 ], [ 417627.0, 4937070.0 ], [ 417627.0, 4937320.0 ], [ 417677.0, 4937320.0 ], [ 417677.0, 4937420.0 ], [ 417727.0, 4937420.0 ], [ 417727.0, 4937670.0 ], [ 417627.0, 4937670.0 ], [ 417627.0, 4937720.0 ], [ 417577.0, 4937720.0 ], [ 417577.0, 4937670.0 ], [ 417377.0, 4937670.0 ], [ 417377.0, 4937770.0 ], [ 417327.0, 4937770.0 ], [ 417327.0, 4937820.0 ], [ 417277.0, 4937820.0 ], [ 417277.0, 4938020.0 ], [ 417077.0, 4938020.0 ], [ 417077.0, 4938070.0 ], [ 417027.0, 4938070.0 ], [ 417027.0, 4938220.0 ], [ 416927.0, 4938220.0 ], [ 416927.0, 4938270.0 ], [ 413777.0, 4938270.0 ], [ 413777.0, 4941870.0 ], [ 415527.0, 4941870.0 ], [ 415527.0, 4941820.0 ], [ 415777.0, 4941820.0 ], [ 415777.0, 4941770.0 ], [ 415827.0, 4941770.0 ], [ 415827.0, 4941820.0 ], [ 415877.0, 4941820.0 ], [ 415877.0, 4941870.0 ], [ 415927.0, 4941870.0 ], [ 415927.0, 4942070.0 ], [ 415977.0, 4942070.0 ], [ 415977.0, 4942270.0 ], [ 416027.0, 4942270.0 ], [ 416027.0, 4942320.0 ], [ 416077.0, 4942320.0 ], [ 416077.0, 4942770.0 ], [ 416027.0, 4942770.0 ], [ 416027.0, 4942820.0 ], [ 416077.0, 4942820.0 ], [ 416077.0, 4942870.0 ], [ 416177.0, 4942870.0 ], [ 416177.0, 4942820.0 ], [ 416227.0, 4942820.0 ], [ 416227.0, 4942870.0 ], [ 416327.0, 4942870.0 ], [ 416327.0, 4942920.0 ], [ 416377.0, 4942920.0 ], [ 416377.0, 4943020.0 ], [ 416427.0, 4943020.0 ], [ 416427.0, 4943170.0 ], [ 416527.0, 4943170.0 ], [ 416527.0, 4943220.0 ], [ 416977.0, 4943220.0 ], [ 416977.0, 4943320.0 ], [ 417127.0, 4943320.0 ], [ 417127.0, 4943370.0 ], [ 417177.0, 4943370.0 ], [ 417177.0, 4943420.0 ], [ 417377.0, 4943420.0 ], [ 417377.0, 4943370.0 ], [ 417527.0, 4943370.0 ], [ 417527.0, 4943320.0 ], [ 417777.0, 4943320.0 ], [ 417777.0, 4943270.0 ], [ 417827.0, 4943270.0 ], [ 417827.0, 4943220.0 ], [ 417977.0, 4943220.0 ], [ 417977.0, 4943270.0 ], [ 418027.0, 4943270.0 ], [ 418027.0, 4943320.0 ], [ 418327.0, 4943320.0 ], [ 418327.0, 4943170.0 ], [ 418377.0, 4943170.0 ], [ 418377.0, 4943120.0 ], [ 418577.0, 4943120.0 ], [ 418577.0, 4943070.0 ], [ 418627.0, 4943070.0 ], [ 418627.0, 4943020.0 ], [ 418727.0, 4943020.0 ], [ 418727.0, 4942970.0 ], [ 419027.0, 4942970.0 ], [ 419027.0, 4943020.0 ], [ 419077.0, 4943020.0 ], [ 419077.0, 4943070.0 ], [ 419127.0, 4943070.0 ], [ 419127.0, 4943120.0 ], [ 419177.0, 4943120.0 ], [ 419177.0, 4943170.0 ], [ 419127.0, 4943170.0 ], [ 419127.0, 4943370.0 ], [ 419077.0, 4943370.0 ], [ 419077.0, 4943420.0 ], [ 419177.0, 4943420.0 ], [ 419177.0, 4943470.0 ], [ 419277.0, 4943470.0 ], [ 419277.0, 4943520.0 ], [ 419327.0, 4943520.0 ], [ 419327.0, 4943620.0 ], [ 419377.0, 4943620.0 ], [ 419377.0, 4943670.0 ], [ 419427.0, 4943670.0 ], [ 419427.0, 4943820.0 ], [ 419377.0, 4943820.0 ], [ 419377.0, 4943970.0 ], [ 419477.0, 4943970.0 ], [ 419477.0, 4944020.0 ], [ 419527.0, 4944020.0 ], [ 419527.0, 4944120.0 ], [ 419577.0, 4944120.0 ], [ 419577.0, 4944170.0 ], [ 419627.0, 4944170.0 ], [ 419627.0, 4944320.0 ], [ 419677.0, 4944320.0 ], [ 419677.0, 4944520.0 ], [ 419727.0, 4944520.0 ], [ 419727.0, 4944570.0 ], [ 419877.0, 4944570.0 ], [ 419877.0, 4944620.0 ], [ 419927.0, 4944620.0 ], [ 419927.0, 4944670.0 ], [ 420027.0, 4944670.0 ], [ 420027.0, 4944720.0 ], [ 420127.0, 4944720.0 ], [ 420127.0, 4944770.0 ], [ 420177.0, 4944770.0 ], [ 420177.0, 4944920.0 ], [ 420227.0, 4944920.0 ], [ 420227.0, 4945020.0 ], [ 420277.0, 4945020.0 ], [ 420277.0, 4945070.0 ], [ 420327.0, 4945070.0 ], [ 420327.0, 4945170.0 ], [ 420427.0, 4945170.0 ], [ 420427.0, 4945220.0 ], [ 420527.0, 4945220.0 ], [ 420527.0, 4945270.0 ], [ 420627.0, 4945270.0 ], [ 420627.0, 4945420.0 ], [ 420677.0, 4945420.0 ], [ 420677.0, 4945470.0 ], [ 420727.0, 4945470.0 ], [ 420727.0, 4945420.0 ], [ 420827.0, 4945420.0 ], [ 420827.0, 4945470.0 ], [ 420877.0, 4945470.0 ], [ 420877.0, 4945520.0 ], [ 420927.0, 4945520.0 ], [ 420927.0, 4945620.0 ], [ 420977.0, 4945620.0 ], [ 420977.0, 4945670.0 ], [ 420927.0, 4945670.0 ], [ 420927.0, 4945770.0 ], [ 420877.0, 4945770.0 ], [ 420877.0, 4945820.0 ], [ 420827.0, 4945820.0 ], [ 420827.0, 4946020.0 ], [ 420777.0, 4946020.0 ], [ 420777.0, 4946120.0 ], [ 420727.0, 4946120.0 ], [ 420727.0, 4946470.0 ], [ 420777.0, 4946470.0 ], [ 420777.0, 4946620.0 ], [ 420727.0, 4946620.0 ], [ 420727.0, 4946770.0 ], [ 420677.0, 4946770.0 ], [ 420677.0, 4946970.0 ], [ 420627.0, 4946970.0 ], [ 420627.0, 4947020.0 ], [ 420677.0, 4947020.0 ], [ 420677.0, 4947070.0 ], [ 420627.0, 4947070.0 ], [ 420627.0, 4947120.0 ], [ 420577.0, 4947120.0 ], [ 420577.0, 4947170.0 ], [ 420527.0, 4947170.0 ], [ 420527.0, 4947370.0 ], [ 420477.0, 4947370.0 ], [ 420477.0, 4947470.0 ], [ 420527.0, 4947470.0 ], [ 420527.0, 4947620.0 ], [ 420477.0, 4947620.0 ], [ 420477.0, 4947670.0 ], [ 420427.0, 4947670.0 ], [ 420427.0, 4947720.0 ], [ 420377.0, 4947720.0 ], [ 420377.0, 4947670.0 ], [ 420327.0, 4947670.0 ], [ 420327.0, 4947770.0 ], [ 420377.0, 4947770.0 ], [ 420377.0, 4947970.0 ], [ 420327.0, 4947970.0 ], [ 420327.0, 4948020.0 ], [ 420277.0, 4948020.0 ], [ 420277.0, 4948120.0 ], [ 420227.0, 4948120.0 ], [ 420227.0, 4948170.0 ], [ 420177.0, 4948170.0 ], [ 420177.0, 4948270.0 ], [ 420127.0, 4948270.0 ], [ 420127.0, 4948320.0 ], [ 420077.0, 4948320.0 ], [ 420077.0, 4948370.0 ], [ 420127.0, 4948370.0 ], [ 420127.0, 4948470.0 ], [ 420277.0, 4948470.0 ], [ 420277.0, 4948870.0 ], [ 420327.0, 4948870.0 ], [ 420327.0, 4948970.0 ], [ 420377.0, 4948970.0 ], [ 420377.0, 4949170.0 ], [ 420427.0, 4949170.0 ], [ 420427.0, 4949270.0 ], [ 420477.0, 4949270.0 ], [ 420477.0, 4949320.0 ], [ 420527.0, 4949320.0 ], [ 420527.0, 4949520.0 ], [ 420477.0, 4949520.0 ], [ 420477.0, 4949620.0 ], [ 420527.0, 4949620.0 ], [ 420527.0, 4949720.0 ], [ 420577.0, 4949720.0 ], [ 420577.0, 4949970.0 ], [ 420627.0, 4949970.0 ], [ 420627.0, 4950170.0 ], [ 420577.0, 4950170.0 ], [ 420577.0, 4950320.0 ], [ 420627.0, 4950320.0 ], [ 420627.0, 4950370.0 ], [ 420677.0, 4950370.0 ], [ 420677.0, 4950520.0 ], [ 420727.0, 4950520.0 ], [ 420727.0, 4950570.0 ], [ 420777.0, 4950570.0 ], [ 420777.0, 4950620.0 ], [ 420827.0, 4950620.0 ], [ 420827.0, 4950670.0 ], [ 420877.0, 4950670.0 ], [ 420877.0, 4950720.0 ], [ 420977.0, 4950720.0 ], [ 420977.0, 4950770.0 ], [ 421027.0, 4950770.0 ], [ 421027.0, 4951020.0 ], [ 421077.0, 4951020.0 ], [ 421077.0, 4951370.0 ], [ 421027.0, 4951370.0 ], [ 421027.0, 4951420.0 ], [ 421077.0, 4951420.0 ], [ 421077.0, 4951470.0 ], [ 421227.0, 4951470.0 ], [ 421227.0, 4951520.0 ], [ 421427.0, 4951520.0 ], [ 421427.0, 4951470.0 ], [ 421477.0, 4951470.0 ], [ 421477.0, 4951420.0 ], [ 421527.0, 4951420.0 ], [ 421527.0, 4951370.0 ], [ 421627.0, 4951370.0 ], [ 421627.0, 4951270.0 ], [ 421677.0, 4951270.0 ], [ 421677.0, 4951220.0 ], [ 421777.0, 4951220.0 ], [ 421777.0, 4951170.0 ], [ 421827.0, 4951170.0 ], [ 421827.0, 4951120.0 ], [ 421877.0, 4951120.0 ], [ 421877.0, 4951070.0 ], [ 422027.0, 4951070.0 ], [ 422027.0, 4951020.0 ], [ 422177.0, 4951020.0 ], [ 422177.0, 4950970.0 ], [ 422227.0, 4950970.0 ], [ 422227.0, 4950870.0 ], [ 422427.0, 4950870.0 ], [ 422427.0, 4950820.0 ], [ 422477.0, 4950820.0 ], [ 422477.0, 4950870.0 ], [ 422527.0, 4950870.0 ], [ 422527.0, 4950820.0 ], [ 422677.0, 4950820.0 ], [ 422677.0, 4950870.0 ], [ 422727.0, 4950870.0 ], [ 422727.0, 4950820.0 ], [ 422877.0, 4950820.0 ], [ 422877.0, 4950870.0 ], [ 423177.0, 4950870.0 ], [ 423177.0, 4950920.0 ], [ 423277.0, 4950920.0 ], [ 423277.0, 4950820.0 ], [ 423327.0, 4950820.0 ], [ 423327.0, 4950770.0 ], [ 423377.0, 4950770.0 ], [ 423377.0, 4950820.0 ], [ 423527.0, 4950820.0 ], [ 423527.0, 4950920.0 ], [ 423777.0, 4950920.0 ], [ 423777.0, 4950870.0 ], [ 424127.0, 4950870.0 ], [ 424127.0, 4950820.0 ], [ 424177.0, 4950820.0 ], [ 424177.0, 4950770.0 ], [ 424227.0, 4950770.0 ], [ 424227.0, 4950720.0 ], [ 424327.0, 4950720.0 ], [ 424327.0, 4950670.0 ], [ 424377.0, 4950670.0 ], [ 424377.0, 4950420.0 ], [ 424527.0, 4950420.0 ], [ 424527.0, 4950370.0 ], [ 424627.0, 4950370.0 ], [ 424627.0, 4950320.0 ], [ 424727.0, 4950320.0 ], [ 424727.0, 4950370.0 ], [ 424977.0, 4950370.0 ], [ 424977.0, 4950420.0 ], [ 425177.0, 4950420.0 ], [ 425177.0, 4950470.0 ], [ 425277.0, 4950470.0 ], [ 425277.0, 4950420.0 ], [ 425377.0, 4950420.0 ], [ 425377.0, 4950370.0 ], [ 425577.0, 4950370.0 ], [ 425577.0, 4950320.0 ], [ 425627.0, 4950320.0 ], [ 425627.0, 4950270.0 ], [ 425727.0, 4950270.0 ], [ 425727.0, 4950220.0 ], [ 425877.0, 4950220.0 ], [ 425877.0, 4950170.0 ], [ 425927.0, 4950170.0 ], [ 425927.0, 4949820.0 ], [ 425977.0, 4949820.0 ], [ 425977.0, 4949570.0 ], [ 426127.0, 4949570.0 ], [ 426127.0, 4949620.0 ], [ 426177.0, 4949620.0 ], [ 426177.0, 4949570.0 ], [ 426327.0, 4949570.0 ], [ 426327.0, 4949620.0 ], [ 426627.0, 4949620.0 ], [ 426627.0, 4949570.0 ], [ 426677.0, 4949570.0 ], [ 426677.0, 4949520.0 ], [ 426877.0, 4949520.0 ], [ 426877.0, 4949470.0 ], [ 426977.0, 4949470.0 ], [ 426977.0, 4949420.0 ], [ 427127.0, 4949420.0 ], [ 427127.0, 4949370.0 ], [ 427277.0, 4949370.0 ], [ 427277.0, 4949320.0 ], [ 427377.0, 4949320.0 ], [ 427377.0, 4949270.0 ], [ 427427.0, 4949270.0 ], [ 427427.0, 4949170.0 ], [ 427527.0, 4949170.0 ], [ 427527.0, 4949120.0 ], [ 427577.0, 4949120.0 ], [ 427577.0, 4949070.0 ], [ 427627.0, 4949070.0 ], [ 427627.0, 4949020.0 ], [ 427677.0, 4949020.0 ], [ 427677.0, 4948920.0 ], [ 427777.0, 4948920.0 ], [ 427777.0, 4948820.0 ], [ 427827.0, 4948820.0 ], [ 427827.0, 4948770.0 ], [ 427877.0, 4948770.0 ], [ 427877.0, 4948720.0 ], [ 427927.0, 4948720.0 ], [ 427927.0, 4948770.0 ], [ 428227.0, 4948770.0 ], [ 428227.0, 4948720.0 ], [ 428427.0, 4948720.0 ], [ 428427.0, 4948620.0 ], [ 428527.0, 4948620.0 ], [ 428527.0, 4948570.0 ], [ 428627.0, 4948570.0 ], [ 428627.0, 4948420.0 ], [ 428877.0, 4948420.0 ], [ 428877.0, 4948470.0 ], [ 428927.0, 4948470.0 ], [ 428927.0, 4948520.0 ], [ 429177.0, 4948520.0 ], [ 429177.0, 4948420.0 ], [ 429327.0, 4948420.0 ], [ 429327.0, 4948220.0 ], [ 429377.0, 4948220.0 ], [ 429377.0, 4947870.0 ], [ 429327.0, 4947870.0 ], [ 429327.0, 4947720.0 ], [ 429377.0, 4947720.0 ], [ 429377.0, 4947670.0 ], [ 429427.0, 4947670.0 ], [ 429427.0, 4947620.0 ], [ 429477.0, 4947620.0 ], [ 429477.0, 4947470.0 ], [ 429527.0, 4947470.0 ], [ 429527.0, 4947420.0 ], [ 429727.0, 4947420.0 ], [ 429727.0, 4947220.0 ], [ 429777.0, 4947220.0 ], [ 429777.0, 4947070.0 ], [ 429877.0, 4947070.0 ], [ 429877.0, 4947020.0 ], [ 429977.0, 4947020.0 ], [ 429977.0, 4946970.0 ], [ 430027.0, 4946970.0 ], [ 430027.0, 4946920.0 ], [ 430077.0, 4946920.0 ], [ 430077.0, 4946770.0 ], [ 430127.0, 4946770.0 ], [ 430127.0, 4946670.0 ], [ 430077.0, 4946670.0 ], [ 430077.0, 4946470.0 ], [ 430027.0, 4946470.0 ], [ 430027.0, 4946420.0 ], [ 429977.0, 4946420.0 ], [ 429977.0, 4946370.0 ], [ 429927.0, 4946370.0 ], [ 429927.0, 4946320.0 ], [ 429877.0, 4946320.0 ], [ 429877.0, 4946120.0 ], [ 429927.0, 4946120.0 ], [ 429927.0, 4946020.0 ], [ 429977.0, 4946020.0 ], [ 429977.0, 4945970.0 ], [ 430027.0, 4945970.0 ], [ 430027.0, 4945820.0 ], [ 430077.0, 4945820.0 ], [ 430077.0, 4945320.0 ], [ 430027.0, 4945320.0 ], [ 430027.0, 4945270.0 ], [ 429977.0, 4945270.0 ], [ 429977.0, 4945220.0 ], [ 429927.0, 4945220.0 ], [ 429927.0, 4945020.0 ], [ 429827.0, 4945020.0 ], [ 429827.0, 4944920.0 ], [ 429777.0, 4944920.0 ], [ 429777.0, 4944820.0 ], [ 429677.0, 4944820.0 ], [ 429677.0, 4944770.0 ], [ 429627.0, 4944770.0 ], [ 429627.0, 4944720.0 ], [ 429577.0, 4944720.0 ], [ 429577.0, 4944620.0 ], [ 429477.0, 4944620.0 ], [ 429477.0, 4944570.0 ], [ 429227.0, 4944570.0 ], [ 429227.0, 4944520.0 ], [ 429177.0, 4944520.0 ], [ 429177.0, 4944420.0 ], [ 429127.0, 4944420.0 ], [ 429127.0, 4944220.0 ], [ 429177.0, 4944220.0 ], [ 429177.0, 4944170.0 ], [ 429227.0, 4944170.0 ], [ 429227.0, 4944020.0 ], [ 429277.0, 4944020.0 ], [ 429277.0, 4943920.0 ], [ 429327.0, 4943920.0 ], [ 429327.0, 4943670.0 ], [ 429377.0, 4943670.0 ], [ 429377.0, 4943570.0 ], [ 429427.0, 4943570.0 ], [ 429427.0, 4943470.0 ], [ 429477.0, 4943470.0 ], [ 429477.0, 4943070.0 ], [ 429577.0, 4943070.0 ], [ 429577.0, 4943020.0 ], [ 429627.0, 4943020.0 ], [ 429627.0, 4942970.0 ], [ 429677.0, 4942970.0 ], [ 429677.0, 4942770.0 ], [ 429627.0, 4942770.0 ], [ 429627.0, 4942670.0 ], [ 429677.0, 4942670.0 ], [ 429677.0, 4942620.0 ], [ 429727.0, 4942620.0 ], [ 429727.0, 4942570.0 ], [ 429777.0, 4942570.0 ], [ 429777.0, 4942620.0 ], [ 429927.0, 4942620.0 ], [ 429927.0, 4942570.0 ], [ 430027.0, 4942570.0 ], [ 430027.0, 4942520.0 ], [ 430127.0, 4942520.0 ], [ 430127.0, 4942420.0 ], [ 430177.0, 4942420.0 ], [ 430177.0, 4942370.0 ], [ 430227.0, 4942370.0 ], [ 430227.0, 4942170.0 ], [ 430277.0, 4942170.0 ], [ 430277.0, 4941970.0 ], [ 430327.0, 4941970.0 ], [ 430327.0, 4941620.0 ], [ 430377.0, 4941620.0 ], [ 430377.0, 4941220.0 ], [ 430427.0, 4941220.0 ], [ 430427.0, 4941120.0 ], [ 430527.0, 4941120.0 ], [ 430527.0, 4941070.0 ], [ 430627.0, 4941070.0 ], [ 430627.0, 4940970.0 ], [ 430677.0, 4940970.0 ], [ 430677.0, 4940520.0 ], [ 430727.0, 4940520.0 ], [ 430727.0, 4940370.0 ], [ 430777.0, 4940370.0 ], [ 430777.0, 4940170.0 ], [ 430727.0, 4940170.0 ], [ 430727.0, 4939670.0 ], [ 430777.0, 4939670.0 ], [ 430777.0, 4939170.0 ], [ 430827.0, 4939170.0 ], [ 430827.0, 4939070.0 ], [ 430877.0, 4939070.0 ], [ 430877.0, 4938970.0 ], [ 430827.0, 4938970.0 ], [ 430827.0, 4938820.0 ], [ 430777.0, 4938820.0 ], [ 430777.0, 4938770.0 ], [ 430727.0, 4938770.0 ], [ 430727.0, 4938720.0 ], [ 430777.0, 4938720.0 ], [ 430777.0, 4938670.0 ], [ 430827.0, 4938670.0 ], [ 430827.0, 4938420.0 ], [ 430877.0, 4938420.0 ], [ 430877.0, 4938370.0 ], [ 430977.0, 4938370.0 ], [ 430977.0, 4938270.0 ], [ 431027.0, 4938270.0 ], [ 431027.0, 4938170.0 ], [ 431077.0, 4938170.0 ], [ 431077.0, 4938070.0 ], [ 431127.0, 4938070.0 ], [ 431127.0, 4937970.0 ], [ 431077.0, 4937970.0 ], [ 431077.0, 4937920.0 ], [ 431027.0, 4937920.0 ], [ 431027.0, 4937770.0 ], [ 431077.0, 4937770.0 ], [ 431077.0, 4937670.0 ], [ 431127.0, 4937670.0 ], [ 431127.0, 4937620.0 ], [ 431227.0, 4937620.0 ], [ 431227.0, 4937420.0 ], [ 431277.0, 4937420.0 ], [ 431277.0, 4937370.0 ], [ 431327.0, 4937370.0 ], [ 431327.0, 4937320.0 ], [ 431427.0, 4937320.0 ], [ 431427.0, 4937220.0 ], [ 431477.0, 4937220.0 ], [ 431477.0, 4937170.0 ], [ 431427.0, 4937170.0 ], [ 431427.0, 4937070.0 ], [ 431477.0, 4937070.0 ], [ 431477.0, 4936970.0 ], [ 431427.0, 4936970.0 ], [ 431427.0, 4936870.0 ], [ 431477.0, 4936870.0 ], [ 431477.0, 4936820.0 ], [ 431527.0, 4936820.0 ], [ 431527.0, 4936720.0 ], [ 431577.0, 4936720.0 ], [ 431577.0, 4936670.0 ], [ 431627.0, 4936670.0 ], [ 431627.0, 4936620.0 ], [ 431677.0, 4936620.0 ], [ 431677.0, 4936570.0 ], [ 431727.0, 4936570.0 ], [ 431727.0, 4936470.0 ], [ 431777.0, 4936470.0 ], [ 431777.0, 4936420.0 ], [ 431827.0, 4936420.0 ], [ 431827.0, 4936120.0 ], [ 431727.0, 4936120.0 ], [ 431727.0, 4936020.0 ], [ 431677.0, 4936020.0 ], [ 431677.0, 4935920.0 ], [ 431627.0, 4935920.0 ], [ 431627.0, 4935870.0 ], [ 431577.0, 4935870.0 ], [ 431577.0, 4935770.0 ], [ 431527.0, 4935770.0 ], [ 431527.0, 4935670.0 ], [ 431477.0, 4935670.0 ], [ 431477.0, 4935520.0 ], [ 431427.0, 4935520.0 ], [ 431427.0, 4935420.0 ], [ 431377.0, 4935420.0 ], [ 431377.0, 4935370.0 ], [ 431327.0, 4935370.0 ], [ 431327.0, 4935320.0 ], [ 431277.0, 4935320.0 ], [ 431277.0, 4935270.0 ], [ 431177.0, 4935270.0 ], [ 431177.0, 4935220.0 ], [ 431127.0, 4935220.0 ], [ 431127.0, 4934970.0 ], [ 431177.0, 4934970.0 ], [ 431177.0, 4934320.0 ], [ 431127.0, 4934320.0 ], [ 431127.0, 4934020.0 ], [ 431027.0, 4934020.0 ], [ 431027.0, 4933970.0 ], [ 430927.0, 4933970.0 ], [ 430927.0, 4934020.0 ], [ 430877.0, 4934020.0 ], [ 430877.0, 4933970.0 ], [ 430827.0, 4933970.0 ], [ 430827.0, 4934020.0 ], [ 430727.0, 4934020.0 ], [ 430727.0, 4934070.0 ], [ 430627.0, 4934070.0 ], [ 430627.0, 4934120.0 ], [ 430477.0, 4934120.0 ], [ 430477.0, 4934070.0 ], [ 430377.0, 4934070.0 ], [ 430377.0, 4934020.0 ], [ 430277.0, 4934020.0 ], [ 430277.0, 4933970.0 ], [ 430227.0, 4933970.0 ], [ 430227.0, 4933870.0 ], [ 430177.0, 4933870.0 ], [ 430177.0, 4933820.0 ], [ 429977.0, 4933820.0 ], [ 429977.0, 4933770.0 ], [ 429927.0, 4933770.0 ], [ 429927.0, 4933720.0 ], [ 429727.0, 4933720.0 ], [ 429727.0, 4933670.0 ], [ 429677.0, 4933670.0 ], [ 429677.0, 4933570.0 ], [ 429627.0, 4933570.0 ], [ 429627.0, 4933520.0 ], [ 429577.0, 4933520.0 ], [ 429577.0, 4933420.0 ], [ 429527.0, 4933420.0 ], [ 429527.0, 4933320.0 ], [ 429477.0, 4933320.0 ], [ 429477.0, 4933120.0 ], [ 429377.0, 4933120.0 ], [ 429377.0, 4933070.0 ], [ 429227.0, 4933070.0 ], [ 429227.0, 4932770.0 ], [ 429177.0, 4932770.0 ], [ 429177.0, 4932720.0 ], [ 429127.0, 4932720.0 ], [ 429127.0, 4932670.0 ], [ 428977.0, 4932670.0 ], [ 428977.0, 4932770.0 ], [ 428677.0, 4932770.0 ], [ 428677.0, 4932720.0 ], [ 428577.0, 4932720.0 ], [ 428577.0, 4932670.0 ], [ 428527.0, 4932670.0 ], [ 428527.0, 4932570.0 ], [ 428427.0, 4932570.0 ], [ 428427.0, 4932520.0 ], [ 428377.0, 4932520.0 ], [ 428377.0, 4932370.0 ], [ 428327.0, 4932370.0 ], [ 428327.0, 4932270.0 ], [ 428277.0, 4932270.0 ], [ 428277.0, 4932220.0 ], [ 428027.0, 4932220.0 ], [ 428027.0, 4932170.0 ], [ 427877.0, 4932170.0 ], [ 427877.0, 4932220.0 ], [ 427777.0, 4932220.0 ], [ 427777.0, 4932270.0 ], [ 427627.0, 4932270.0 ], [ 427627.0, 4932320.0 ], [ 427577.0, 4932320.0 ], [ 427577.0, 4932370.0 ], [ 427477.0, 4932370.0 ], [ 427477.0, 4932420.0 ], [ 427427.0, 4932420.0 ], [ 427427.0, 4932470.0 ], [ 427177.0, 4932470.0 ], [ 427177.0, 4932370.0 ], [ 427127.0, 4932370.0 ], [ 427127.0, 4932320.0 ], [ 427077.0, 4932320.0 ], [ 427077.0, 4932270.0 ], [ 426577.0, 4932270.0 ], [ 426577.0, 4932320.0 ], [ 426427.0, 4932320.0 ], [ 426427.0, 4932270.0 ], [ 426377.0, 4932270.0 ], [ 426377.0, 4932220.0 ], [ 426027.0, 4932220.0 ], [ 426027.0, 4932170.0 ], [ 425877.0, 4932170.0 ], [ 425877.0, 4932270.0 ], [ 425827.0, 4932270.0 ], [ 425827.0, 4932320.0 ], [ 425627.0, 4932320.0 ], [ 425627.0, 4932420.0 ], [ 425577.0, 4932420.0 ], [ 425577.0, 4932470.0 ], [ 425527.0, 4932470.0 ], [ 425527.0, 4932570.0 ], [ 425477.0, 4932570.0 ], [ 425477.0, 4932520.0 ], [ 425377.0, 4932520.0 ], [ 425377.0, 4932470.0 ], [ 425327.0, 4932470.0 ], [ 425327.0, 4932420.0 ], [ 425277.0, 4932420.0 ], [ 425277.0, 4932320.0 ], [ 425227.0, 4932320.0 ], [ 425227.0, 4932220.0 ], [ 425127.0, 4932220.0 ], [ 425127.0, 4932170.0 ], [ 424827.0, 4932170.0 ], [ 424827.0, 4932120.0 ], [ 424777.0, 4932120.0 ], [ 424777.0, 4932070.0 ], [ 424677.0, 4932070.0 ], [ 424677.0, 4932120.0 ], [ 424427.0, 4932120.0 ], [ 424427.0, 4932270.0 ], [ 424377.0, 4932270.0 ], [ 424377.0, 4932320.0 ], [ 424327.0, 4932320.0 ], [ 424327.0, 4932370.0 ], [ 424127.0, 4932370.0 ], [ 424127.0, 4932320.0 ], [ 424077.0, 4932320.0 ], [ 424077.0, 4932220.0 ], [ 424027.0, 4932220.0 ], [ 424027.0, 4932170.0 ], [ 423977.0, 4932170.0 ], [ 423977.0, 4932120.0 ], [ 423877.0, 4932120.0 ], [ 423877.0, 4932070.0 ], [ 423827.0, 4932070.0 ], [ 423827.0, 4932020.0 ], [ 423777.0, 4932020.0 ], [ 423777.0, 4931970.0 ], [ 423727.0, 4931970.0 ], [ 423727.0, 4931920.0 ], [ 423627.0, 4931920.0 ] ] ] } }
]
}
