{
"type": "FeatureCollection",
"name": "rivers_inflow",
"crs": { "type": "name", "properties": { "name": "urn:ogc:def:crs:EPSG::32610" } },
"features": [
{ "type": "Feature", "properties": { "idx": 35770, "idx_ds": 35328, "pit": false, "uparea": 567.82886, "seglen": 21837.742925739611, "rivdst": 21837.742925739611, "rivlen": 37711.787760978645 }, "geometry": { "type": "LineString", "coordinates": [ [ 425351.919838375062682, 4940521.127657836303115 ], [ 425286.869581604900304, 4940614.457278945483267 ], [ 425220.751677136402577, 4940615.220889931544662 ], [ 425154.633772430126555, 4940615.98517650552094 ], [ 425088.5158674857812, 4940616.750138668343425 ], [ 425022.397962305287365, 4940617.515776420943439 ], [ 424955.20673442108091, 4940525.715402049012482 ], [ 424889.087882926105522, 4940526.482390645891428 ], [ 424822.96903119183844, 4940527.25005483161658 ], [ 424756.850179217988625, 4940528.018394608050585 ], [ 424689.654237230541185, 4940436.220734115689993 ], [ 424688.577163486450445, 4940343.654071446508169 ], [ 424687.500105774495751, 4940251.087421972304583 ], [ 424752.545699512818828, 4940157.751771667972207 ], [ 424751.469619632116519, 4940065.185148915275931 ], [ 424750.393555770104285, 4939972.618539355695248 ], [ 424815.442980361054651, 4939879.283605575561523 ], [ 424814.367894260911271, 4939786.717022741213441 ], [ 424879.420187789772172, 4939693.382791955955327 ], [ 424944.474388470465783, 4939600.049250633455813 ], [ 424943.401241748477332, 4939507.482708061113954 ], [ 425008.458311181631871, 4939414.14986974094063 ], [ 425073.51728764991276, 4939320.817720884457231 ], [ 425138.578171114029828, 4939227.486261493526399 ], [ 425203.64096152887214, 4939134.155491570010781 ], [ 425202.571677134430502, 4939041.58901634812355 ], [ 425267.637335973267909, 4938948.258949434384704 ], [ 425332.704901647986844, 4938854.92957198806107 ], [ 425331.63755615305854, 4938762.363137048669159 ], [ 425396.707990066381171, 4938669.034462614916265 ], [ 425461.78033070085803, 4938575.706477653235197 ], [ 425460.714923936640844, 4938483.140083001926541 ], [ 425525.790132624329999, 4938389.81280105933547 ], [ 425524.725703089148737, 4938297.246433153748512 ], [ 425523.661289407929871, 4938204.680078450590372 ], [ 425456.45345555851236, 4938112.874636393040419 ], [ 425389.243746411171742, 4938021.069882416166365 ], [ 425388.177489418594632, 4937928.503566613420844 ], [ 425320.964975473179948, 4937836.69951356202364 ], [ 425254.818702385935467, 4937837.46243869420141 ], [ 425187.603367589705158, 4937745.65974894259125 ], [ 425121.456148587807547, 4937746.424024879932404 ], [ 425054.23799300682731, 4937654.622698424383998 ], [ 424988.089828103664331, 4937655.38832516875118 ], [ 424920.868851803825237, 4937563.588362003676593 ], [ 424854.71974100661464, 4937564.355339552275836 ], [ 424788.570629955211189, 4937565.122992680408061 ], [ 424721.345887376228347, 4937473.325068027712405 ], [ 424655.195830445270985, 4937474.094071961008012 ], [ 424589.045773256919347, 4937474.863751473836601 ], [ 424522.895715812861454, 4937475.634106568992138 ], [ 424455.666261428908911, 4937383.838895642198622 ], [ 424389.515258112864103, 4937384.61060154158622 ], [ 424323.364254542044364, 4937385.382983022369444 ], [ 424257.213250712258741, 4937386.15604008641094 ], [ 424191.062246625253465, 4937386.929772732779384 ], [ 424124.91124228091212, 4937387.704180961474776 ], [ 424058.76023767888546, 4937388.47926477342844 ], [ 423992.60923281905707, 4937389.255024167709053 ], [ 423926.458227701077703, 4937390.031459148041904 ], [ 423859.21933359047398, 4937298.242338055744767 ], [ 423791.978564745048061, 4937206.453905005939305 ], [ 423724.735921201761812, 4937114.666159997694194 ], [ 423657.491403003339656, 4937022.879103026352823 ], [ 423590.245010190585162, 4936931.09273409191519 ], [ 423589.153421377646737, 4936838.526566890068352 ], [ 423521.904224989411887, 4936746.74089880194515 ], [ 423520.811723454680759, 4936654.174757595174015 ], [ 423519.719238200224936, 4936561.608629568479955 ], [ 423518.626769226393662, 4936469.042514722794294 ], [ 423517.534316533361562, 4936376.476413058117032 ], [ 423450.279529889288824, 4936284.691484240815043 ], [ 423383.022868890839163, 4936192.907243442721665 ], [ 423381.928574701654725, 4936100.341180573217571 ], [ 423314.669110544957221, 4936008.557640599086881 ], [ 423248.503924000135157, 4936009.340825896710157 ], [ 423181.24164018954616, 4935917.558649143204093 ], [ 423115.075507967208978, 4935918.343185231089592 ], [ 423048.909375474322587, 4935919.128396903164685 ], [ 422982.743242712575011, 4935919.914284159429371 ], [ 422916.577109681791626, 4935920.700846998021007 ], [ 422850.410976381739601, 4935921.488085422664881 ], [ 422784.244842812186107, 4935922.275999430567026 ], [ 422718.07870897493558, 4935923.06458902452141 ], [ 422651.912574863643385, 4935923.853854203596711 ], [ 422585.746440486225765, 4935924.643794968724251 ], [ 422520.686854295432568, 4936018.000452720560133 ], [ 422454.521664523694199, 4936018.791745036840439 ], [ 422388.356474481523037, 4936019.583712940104306 ], [ 422322.191284168802667, 4936020.376356430351734 ], [ 422256.026093585242052, 4936021.169675508514047 ], [ 422189.860902732645627, 4936021.963670174591243 ], [ 422123.695711606706027, 4936022.758340428583324 ], [ 422057.530520209285896, 4936023.553686272352934 ], [ 421991.365328540094197, 4936024.349707704037428 ], [ 421925.200136599014513, 4936025.146404727362096 ], [ 421859.03494438767666, 4936025.943777338601649 ], [ 421792.869751901889686, 4936026.741825541481376 ], [ 421726.704559143458027, 4936027.540549334138632 ], [ 421660.539366112207063, 4936028.33994871750474 ], [ 421595.493970083422028, 4936121.706083581782877 ], [ 421529.32972167734988, 4936122.506834531202912 ], [ 421464.287177329650149, 4936215.87433488573879 ], [ 421398.123873557837214, 4936216.676437402144074 ], [ 421333.084180966485292, 4936310.045303247869015 ], [ 421266.921821850119159, 4936310.848757333122194 ], [ 421201.884981084091123, 4936404.218988670967519 ], [ 421135.723566636326723, 4936405.023794326931238 ], [ 421070.68957777088508, 4936498.395391155965626 ], [ 421004.529108008893672, 4936499.20154838450253 ], [ 420938.368637971929274, 4936500.008381211198866 ], [ 420873.3384460521047, 4936593.382019511424005 ], [ 420808.310161207453348, 4936686.756347327493131 ], [ 420742.151580856298096, 4936687.565207708626986 ], [ 420677.126148133887909, 4936780.940901016816497 ], [ 420610.968512511928566, 4936781.751112976111472 ], [ 420544.810876617091708, 4936782.562000535428524 ], [ 420478.653240449377336, 4936783.373563694767654 ], [ 420413.632549952832051, 4936876.751974462531507 ], [ 420347.475858531543054, 4936877.564889203757048 ], [ 420281.319166835048236, 4936878.378479546867311 ], [ 420215.162474865152035, 4936879.192745491862297 ], [ 420149.00578262162162, 4936880.007687037810683 ], [ 420082.849090104340576, 4936880.823304185643792 ], [ 420016.692397312901448, 4936881.639596935361624 ], [ 419950.535704247246031, 4936882.456565289758146 ], [ 419884.379010907083284, 4936883.274209246970713 ], [ 419818.222317294217646, 4936884.092528807930648 ], [ 419752.06562340434175, 4936884.911523971706629 ], [ 419685.90892923931824, 4936885.731194741092622 ], [ 419619.752234798914287, 4936886.551541114225984 ], [ 419553.59554008289706, 4936887.372563092038035 ], [ 419487.438845093070995, 4936888.194260676391423 ], [ 419421.282149825128727, 4936889.016633866354823 ], [ 419356.277542109310161, 4936982.405873963609338 ], [ 419290.121791601763107, 4936983.229598752222955 ], [ 419223.966040817962494, 4936984.053999147377908 ], [ 419157.810289757733699, 4936984.879075150936842 ], [ 419092.810424729657825, 4937078.271032749675214 ], [ 419026.655618445132859, 4937079.097460355609655 ], [ 418961.65860610047821, 4937172.49078346695751 ], [ 418896.663501432223711, 4937265.884796092286706 ], [ 418897.822275521990377, 4937358.451042639091611 ], [ 418898.98106687591644, 4937451.017302319407463 ], [ 418900.139875493710861, 4937543.583575134165585 ], [ 418901.298701375082601, 4937636.149861079640687 ], [ 418902.457544519915245, 4937728.716160159558058 ], [ 418969.763648617081344, 4937820.454690468497574 ], [ 419037.067878791189287, 4937912.193908762186766 ], [ 419104.37023500126088, 4938003.933815038762987 ], [ 419171.670717204571702, 4938095.674409301951528 ], [ 419237.815123397100251, 4938094.849328704178333 ], [ 419238.969325364567339, 4938187.415691556409001 ], [ 419306.26605943829054, 4938279.157661802135408 ], [ 419373.560919385170564, 4938370.900320042856038 ], [ 419440.853905164403841, 4938462.643666281364858 ], [ 419508.1450167351868, 4938554.38770052138716 ], [ 419509.295522393193096, 4938646.954127559438348 ], [ 419510.446045185206458, 4938739.520567736588418 ], [ 419577.733425600687042, 4938831.265315514057875 ], [ 419645.018931672442704, 4938923.010751300491393 ], [ 419646.167614623263944, 4939015.577230154536664 ], [ 419581.182311315264087, 4939108.964753187261522 ], [ 419582.331974124768749, 4939201.531258692033589 ], [ 419583.481654052855447, 4939294.097777335904539 ], [ 419584.631351099349558, 4939386.664309121668339 ], [ 419519.650844320422038, 4939480.052562167868018 ], [ 419520.801521308545489, 4939572.619120599702001 ], [ 419521.952215428464115, 4939665.185692171566188 ], [ 419456.975542633095756, 4939758.57466171681881 ], [ 419458.12721676408546, 4939851.141259930096567 ], [ 419393.153415244654752, 4939944.530932462774217 ], [ 419328.181522164784838, 4940037.92129447683692 ], [ 419329.335139313014224, 4940130.487932832911611 ], [ 419330.488773633784149, 4940223.054584327153862 ], [ 419265.520715007907711, 4940316.445662822574377 ], [ 419266.675329507270362, 4940409.012340951710939 ], [ 419201.710142499068752, 4940502.404122422449291 ], [ 419268.984610063198488, 4940594.145736622624099 ], [ 419270.139276119356509, 4940686.712454163469374 ], [ 419271.293959360627923, 4940779.279184839688241 ], [ 419206.332624629721977, 4940872.671020295470953 ], [ 419141.373198669054545, 4940966.063545219600201 ], [ 419075.258108920999803, 4940966.889988460578024 ], [ 419009.143018917529844, 4940967.717107320204377 ], [ 418943.027928658411838, 4940968.544901803135872 ], [ 418876.912838143354747, 4940969.373371907509863 ], [ 418810.797747372300364, 4940970.202517634257674 ], [ 418745.844958620960824, 4941063.599111933261156 ], [ 418679.730813274509273, 4941064.429609264247119 ], [ 418613.616667673923075, 4941065.260782219469547 ], [ 418547.502521814894862, 4941066.092630799859762 ], [ 418481.38837569928728, 4941066.925155004486442 ], [ 418415.274229326925706, 4941067.758354833349586 ], [ 418349.160082697577309, 4941068.592230288311839 ], [ 418283.045935813046526, 4941069.426781367510557 ], [ 418216.931788669084199, 4941070.26200807467103 ], [ 418150.817641267552972, 4941071.09791040699929 ], [ 418084.703493608161807, 4941071.93448836542666 ], [ 418018.589345690794289, 4941072.771741952747107 ], [ 417953.648868540651165, 4941166.176461562514305 ], [ 417954.822557029430754, 4941258.743265082128346 ], [ 417889.884952464082744, 4941352.148687649518251 ], [ 417824.94925710640382, 4941445.554799687117338 ], [ 417760.015470999700483, 4941538.961601193994284 ], [ 417695.083594187279232, 4941632.36909217108041 ], [ 417630.153626712388359, 4941725.777272616513073 ], [ 417565.225568618392572, 4941819.186142527498305 ], [ 417500.29941994859837, 4941912.595701907761395 ], [ 417434.193783858441748, 4941913.439039400778711 ], [ 417369.270490488852374, 4942006.849964236840606 ], [ 417303.16579997446388, 4942007.694653354585171 ], [ 417238.245361978420988, 4942101.106943645514548 ], [ 417172.141617057088297, 4942101.95298439078033 ], [ 417107.224034510203637, 4942195.366640139371157 ], [ 417041.121235197177157, 4942196.214032512158155 ], [ 416976.206508168717846, 4942289.629053718410432 ], [ 416910.104654479364399, 4942290.477797720581293 ], [ 416844.002800535061397, 4942291.327217362821102 ], [ 416776.710035394353326, 4942199.610358371399343 ], [ 416710.607234803959727, 4942200.461128930561244 ], [ 416643.311648486414924, 4942108.745633250102401 ], [ 416577.207901261164807, 4942109.597754726186395 ], [ 416509.909493834478781, 4942017.883622352965176 ], [ 416442.609211718081497, 4941926.17017800360918 ], [ 416375.307054952776525, 4941834.457421674393117 ], [ 416308.003023579192813, 4941742.745353365316987 ], [ 416240.697117640054785, 4941651.033973073586822 ], [ 416173.38933717191685, 4941559.323280793614686 ], [ 416106.079682217678055, 4941467.613276524469256 ], [ 416038.768152817792725, 4941375.903960264287889 ], [ 415971.454749013122637, 4941284.19533200841397 ], [ 415905.342484694090672, 4941285.054206595756114 ], [ 415838.026260273938533, 4941193.346941613592207 ], [ 415771.913049437222071, 4941194.20716710947454 ], [ 415704.594004467129707, 4941102.501265397295356 ], [ 415637.273085239809006, 4941010.796051680110395 ], [ 415571.157981673430186, 4941011.65830335393548 ], [ 415503.83424201537855, 4940919.954452897422016 ], [ 415437.718191965599544, 4940920.818055480718613 ], [ 415371.602141648763791, 4940921.682333706878126 ], [ 415305.486091064405628, 4940922.547287573106587 ], [ 415238.157638634380419, 4940830.846150905825198 ], [ 415172.04064157808898, 4940831.712455681525171 ], [ 415104.70936887251446, 4940740.012682263739407 ] ] } },
{ "type": "Feature", "properties": { "idx": 33552, "idx_ds": 35770, "pit": false, "uparea": 450.26071, "seglen": 15874.044835239036, "rivdst": 37711.787760978645, "rivlen": 37711.787760978645 }, "geometry": { "type": "LineString", "coordinates": [ [ 430455.603421910665929, 4941120.0 ], [ 430450.034643639926799, 4941112.377326857298613 ], [ 430382.926577732141595, 4941020.521504063159227 ], [ 430381.930738115217537, 4940927.954776569269598 ], [ 430314.819864018703811, 4940836.099654907360673 ], [ 430313.823108202370349, 4940743.532953596673906 ], [ 430312.826367221074179, 4940650.966265532188118 ], [ 430311.829641074931715, 4940558.399590712040663 ], [ 430244.714096967480145, 4940466.545196047052741 ], [ 430177.596675901091658, 4940374.691489567048848 ], [ 430111.476896871405188, 4940375.405107292346656 ], [ 430044.356652893358842, 4940283.552764247171581 ], [ 429977.234532053233124, 4940191.701109381392598 ], [ 429910.110534391831607, 4940099.850142692215741 ], [ 429842.984659951995127, 4940007.999864178709686 ], [ 429776.86109679256333, 4940008.716858466155827 ], [ 429709.732399667147547, 4939916.867943371646106 ], [ 429774.852735698397737, 4939823.583702448755503 ], [ 429708.727280890918337, 4939824.301371665671468 ], [ 429641.595776353380643, 4939732.453157664276659 ], [ 429574.462395199167076, 4939640.605631825514138 ], [ 429507.327137471060269, 4939548.758794150315225 ], [ 429506.319241605582647, 4939456.19227444101125 ], [ 429440.190003206022084, 4939456.912644634954631 ], [ 429373.05099244689336, 4939365.067183278501034 ], [ 429305.910105234652292, 4939273.222410078160465 ], [ 429239.77897488581948, 4939273.944806319661438 ], [ 429173.647844307590276, 4939274.667878124862909 ], [ 429174.660438269726001, 4939367.234372972510755 ], [ 429108.530253081349656, 4939367.958120666444302 ], [ 429042.400067659677006, 4939368.68254392594099 ], [ 428977.285327963647433, 4939461.974151805974543 ], [ 429044.429083394701593, 4939553.815574620850384 ], [ 428979.316265227971599, 4939647.107209612615407 ], [ 428980.331756538711488, 4939739.673758366145194 ], [ 428981.347262968134601, 4939832.240320351906121 ], [ 428916.238272677059285, 4939925.532671900466084 ], [ 428917.254755066533107, 4940018.099260671064258 ], [ 428984.39387296687346, 4940109.940085709095001 ], [ 429051.531114266603254, 4940201.781598908826709 ], [ 428986.425021889153868, 4940295.07332877907902 ], [ 429053.560401879949495, 4940386.914867809042335 ], [ 429054.575068341509905, 4940479.481522109359503 ], [ 429121.707640937296674, 4940571.323762225918472 ], [ 429122.721391783736181, 4940663.890442676842213 ], [ 429189.85115686734207, 4940755.733383884653449 ], [ 429190.86399204202462, 4940848.300090491771698 ], [ 429257.990949502564035, 4940940.143732796423137 ], [ 429192.88970761327073, 4941033.433543412014842 ], [ 429193.902588009368628, 4941126.000289724208415 ], [ 429261.026753019657917, 4941217.84397079795599 ], [ 429327.138022340368479, 4941217.121567893773317 ], [ 429328.14904104656307, 4941309.688340056687593 ], [ 429263.050697326892987, 4941402.977528979070485 ], [ 429197.954260325408541, 4941496.267407326027751 ], [ 429198.967216086224653, 4941588.834219814278185 ], [ 429199.98018691939069, 4941681.401045537553728 ], [ 429134.88757878402248, 4941774.691640400327742 ], [ 429135.901525764551479, 4941867.258492900058627 ], [ 429070.811785589787178, 4941960.549790726043284 ], [ 429005.723952349624597, 4942053.841777973808348 ], [ 428940.638026081200223, 4942147.134454644285142 ], [ 428875.554006829566788, 4942240.427820734679699 ], [ 428810.471894637856167, 4942333.72187624219805 ], [ 428745.391689549200237, 4942427.016621170565486 ], [ 428680.313391608709935, 4942520.312055516988039 ], [ 428615.23700085550081, 4942613.608179281465709 ], [ 428549.139919400739018, 4942614.338018119335175 ], [ 428483.042837728280574, 4942615.068532536737621 ], [ 428416.945755837892648, 4942615.799722532741725 ], [ 428349.823252645961475, 4942523.964626078493893 ], [ 428283.72522419760935, 4942524.69716692622751 ], [ 428216.599897482374217, 4942432.86343393754214 ], [ 428149.472693626594264, 4942341.030389138497412 ], [ 428148.444480061472859, 4942248.463465865701437 ], [ 428147.416281792218797, 4942155.896555817686021 ], [ 428146.388098819181323, 4942063.329658995382488 ], [ 428145.359931142418645, 4941970.762775396928191 ], [ 428144.33177876228001, 4941878.195905026979744 ], [ 428210.436430112400558, 4941877.462015183642507 ], [ 428275.514836176414974, 4941784.161944394931197 ], [ 428340.595149291213602, 4941690.862563031725585 ], [ 428339.569880746188574, 4941598.29573327396065 ], [ 428404.653062088473234, 4941504.997054881416261 ], [ 428469.738150369026698, 4941411.699065915308893 ], [ 428402.604493166087195, 4941319.863462127745152 ], [ 428467.691503791545983, 4941226.565500245429575 ], [ 428533.802775791147724, 4941225.834990472532809 ], [ 428598.892638937511947, 4941132.538393909111619 ], [ 428597.871245508664288, 4941039.971644775941968 ], [ 428596.849867279990576, 4940947.404908872209489 ], [ 428529.713448925700504, 4940855.568019133061171 ], [ 428528.691155245527625, 4940763.001309370622039 ], [ 428527.66887678031344, 4940670.434612836688757 ], [ 428460.52872046129778, 4940578.598437091335654 ], [ 428459.505526615772396, 4940486.031766695901752 ], [ 428392.36256309482269, 4940394.19629202131182 ], [ 428325.217723010457121, 4940302.361505503766239 ], [ 428258.071006399404723, 4940210.527407144196332 ], [ 428257.045036207535304, 4940117.960788696072996 ], [ 428256.019081288366579, 4940025.394183475524187 ], [ 428254.993141642073169, 4939932.827591480687261 ], [ 428253.967217268887907, 4939840.261012712493539 ], [ 428252.941308169043623, 4939747.694447170011699 ], [ 428251.915414342714939, 4939655.127894855104387 ], [ 428250.889535790134687, 4939562.561355765908957 ], [ 428315.992915080685634, 4939469.262299504131079 ], [ 428314.968012719473336, 4939376.695787195116282 ], [ 428380.074259223765694, 4939283.397433939389884 ], [ 428312.918253778247163, 4939191.562802256084979 ], [ 428311.893397198640741, 4939098.996329626999795 ], [ 428310.868555880035274, 4939006.42987022548914 ], [ 428309.843729822488967, 4938913.863424051553011 ], [ 428242.683057250105776, 4938822.029519195668399 ], [ 428241.65731617086567, 4938729.463099143467844 ], [ 428174.493837278103456, 4938637.629895313642919 ], [ 428107.328482389100827, 4938545.797379610128701 ], [ 428040.161251544661354, 4938453.965552031062543 ], [ 427972.992144787742291, 4938362.134412576444447 ], [ 427905.821162155130878, 4938270.303961240686476 ], [ 427839.679625881602988, 4938271.040540737099946 ], [ 427772.505821712082252, 4938179.211452748626471 ], [ 427705.330141763552092, 4938087.383052875287831 ], [ 427640.220857032109052, 4938180.687988905236125 ], [ 427574.078374329488724, 4938181.427270335145295 ], [ 427507.935891384724528, 4938182.16722733527422 ], [ 427442.83040317875566, 4938275.474204645492136 ], [ 427377.726821120420936, 4938368.78187142405659 ], [ 427311.586228395346552, 4938369.523855810984969 ], [ 427312.625145254773088, 4938462.090227666310966 ], [ 427246.485497782821767, 4938462.832887961529195 ], [ 427181.386673421016894, 4938556.142609580419958 ], [ 427116.289755355101079, 4938649.453020663000643 ], [ 427051.194743624131661, 4938742.76412120833993 ], [ 426986.101638273335993, 4938836.075911216437817 ], [ 426921.010439345787745, 4938929.388390688225627 ], [ 426855.921146884735208, 4939022.701559620909393 ], [ 426790.833760933252051, 4939116.015418015420437 ], [ 426725.748281536623836, 4939209.329965870827436 ], [ 426660.664708733791485, 4939302.645203185267746 ], [ 426595.583042570156977, 4939395.961129957810044 ], [ 426530.503283088677563, 4939489.277746190316975 ], [ 426464.374034136417322, 4939490.028517086058855 ], [ 426399.297126810997725, 4939583.346498691476882 ], [ 426333.168823050276842, 4939584.098621080629528 ], [ 426268.094767953793053, 4939677.417968056164682 ], [ 426201.967409401549958, 4939678.171441940590739 ], [ 426136.896206606994383, 4939771.492154287174344 ], [ 426070.769793274346739, 4939772.246979666873813 ], [ 426004.643379702465609, 4939773.002480629831553 ], [ 425939.575974758714437, 4939866.325234265998006 ], [ 425873.450506425579078, 4939867.082086727023125 ], [ 425808.385953944700304, 4939960.406205738894641 ], [ 425743.323308493767399, 4940053.731014206074178 ], [ 425678.26257011591224, 4940147.056512128561735 ], [ 425613.203738854266703, 4940240.382699507288635 ], [ 425614.267555484606419, 4940332.949344284832478 ], [ 425548.146814754116349, 4940333.709576337598264 ], [ 425483.091797854518518, 4940427.037142621353269 ], [ 425418.038688200642355, 4940520.365398357622325 ], [ 425351.919838375062682, 4940521.127657836303115 ] ] } },
{ "type": "Feature", "properties": { "idx": 30310, "idx_ds": 35770, "pit": false, "uparea": 50.039162, "seglen": 2613.5745644236372, "rivdst": 24451.317490163248, "rivlen": 24451.317490163248 }, "geometry": { "type": "LineString", "coordinates": [ [ 424909.501714539830573, 4942285.251719723455608 ], [ 424908.42715846945066, 4942192.684794182889163 ], [ 424907.352618384466041, 4942100.117881835438311 ], [ 424840.174377612769604, 4942008.318652148358524 ], [ 424772.994260500767268, 4941916.520110600627959 ], [ 424705.81226709112525, 4941824.722257189452648 ], [ 424638.628397420747206, 4941732.925091908313334 ], [ 424703.657654722512234, 4941639.588549279607832 ], [ 424769.765155963948928, 4941638.81952993106097 ], [ 424834.797266814974137, 4941545.484352666884661 ], [ 424899.831285400316119, 4941452.149864846840501 ], [ 424898.756873206817545, 4941359.583058054558933 ], [ 424963.793761418608483, 4941266.249273198656738 ], [ 425030.977549911884125, 4941358.049750476144254 ], [ 425096.016329546575435, 4941264.717317463830113 ], [ 425162.127613259013742, 4941263.95235298294574 ], [ 425227.169246182951611, 4941170.621285335160792 ], [ 425293.2814753575949, 4941169.857672364450991 ], [ 425359.393704297486693, 4941169.094734982587397 ], [ 425424.439136117580347, 4941075.765708616934717 ], [ 425490.552310504484922, 4941075.004122742451727 ], [ 425555.600595450669061, 4940981.676461740396917 ], [ 425554.535722092201468, 4940889.109724224545062 ], [ 425553.470864581584465, 4940796.542999908328056 ], [ 425486.289065245073289, 4940704.737197759561241 ], [ 425419.105389829259366, 4940612.932083738036454 ], [ 425351.919838375062682, 4940521.127657836303115 ] ] } }
]
}
